algorithm,apogee,argOfPerigee,bStar,classificationMarking,elset_created_at,elset_created_by,dataMode,eccentricity,idElset,idOnOrbit,inclination,line1,line2,meanAnomaly,meanMotion,meanMotionDDot,meanMotionDot,origNetwork,perigee,period,raan,revNo,satNo,semiMajorAxis,source,__START_AT,__END_AT,COUNTRY,LAUNCH,LAUNCH_NUM,LAUNCH_PIECE,NORAD_CAT_ID,OBJECT_ID,OBJECT_NAME,OBJECT_NUMBER,OBJECT_TYPE,RCS_SIZE,SATNAME,SITE,satcat_current_fetch_date
SGP4,6862.99,56.5577,4.7873E-4,U,2024-02-01T05:05:13.588Z,system.ob-ingest,REAL,7.843E-4,9794c2b9-ff25-48e7-a9c0-66502f3e13f0,45775,53.0736,1 45775U 20038AX  24031.90962656 +.00013248 +00000+0 +47873-3 0 99992,2 45775  53.0736   6.3155 0007843  56.5577 303.6171 15.28774504201570,303.6171,15.28774504,0.0,1.3248E-4,OPS1,6852.233,94.193,6.3155,20157,45775,6857.612,18th SPCS,2024-01-31T21:49:51.734784Z,2024-02-01T04:06:25.300224Z,US,2020-06-13,38,AX,45775,2020-038AX,STARLINK-1488,45775,PAYLOAD,LARGE,STARLINK-1488,AFETR,2024-08-21
SGP4,6926.321,80.4377,1.2285E-4,U,2024-01-31T23:05:15.167Z,system.ob-ingest,REAL,1.405E-4,29707488-3b87-4a9c-a4d5-66f0130fe168,45778,53.0557,1 45778U 20038BA  24031.31470691 +.00001549 +00000+0 +12285-3 0 99993,2 45778  53.0557  45.9915 0001405  80.4377 279.6771 15.06400112200933,279.6771,15.06400112,0.0,1.549E-5,OPS1,6924.375,95.592,45.9915,20093,45778,6925.348,18th SPCS,2024-01-31T07:33:10.677024Z,2024-02-01T04:15:10.410048Z,US,2020-06-13,38,BA,45778,2020-038BA,STARLINK-1491,45778,PAYLOAD,LARGE,STARLINK-1491,AFETR,2024-08-21
SGP4,6926.314,93.3107,-1.5573E-5,U,2024-01-31T15:05:12.999Z,system.ob-ingest,REAL,1.369E-4,e2ba9be6-43ac-4a43-8f5b-79fc68f2607a,45781,53.0547,1 45781U 20038BD  24031.34787436 -.00000513 +00000+0 -15573-4 0 99994,2 45781  53.0547  45.8359 0001369  93.3107 266.8038 15.06394408201878,266.8038,15.06394408,0.0,-5.13E-6,OPS1,6924.418,95.592,45.8359,20187,45781,6925.366,18th SPCS,2024-01-31T08:20:56.344704Z,2024-02-01T00:16:19.644672Z,US,2020-06-13,38,BD,45781,2020-038BD,STARLINK-1497,45781,PAYLOAD,LARGE,STARLINK-1497,AFETR,2024-08-21
SGP4,6926.289,90.4118,2.5842E-5,U,2024-01-31T23:05:15.294Z,system.ob-ingest,REAL,1.351E-4,805ca99e-3efd-49d7-9800-666efe9edddd,46347,53.054,1 46347U 20062Y   24031.78695551 +.00000103 +00000+0 +25842-4 0 99997,2 46347  53.0540 178.8670 0001351  90.4118 269.7026 15.06398334189375,269.7026,15.06398334,0.0,1.03E-6,OPS1,6924.418,95.592,178.867,18937,46347,6925.354,18th SPCS,2024-01-31T18:53:12.956064Z,2024-02-02T09:06:09.745344Z,US,2020-09-03,62,Y,46347,2020-062Y,STARLINK-1547,46347,PAYLOAD,LARGE,STARLINK-1547,AFETR,2024-08-21
SGP4,6926.322,114.5952,-1.255E-5,U,2024-02-01T05:05:13.891Z,system.ob-ingest,REAL,1.446E-4,c83f83b1-efa2-4cbd-991d-83c701f56c95,46565,53.0552,1 46565U 20070AK  24031.93761880 -.00000468 +00000+0 -12550-4 0 99992,2 46565  53.0552   3.1879 0001446 114.5952 245.5188 15.06408962184061,245.5188,15.06408962,0.0,-4.68E-6,OPS1,6924.32,95.592,3.1879,18406,46565,6925.321,18th SPCS,2024-01-31T22:30:10.264320Z,2024-02-01T03:16:47.125920Z,US,2020-10-06,70,AK,46565,2020-070AK,STARLINK-1735,46565,PAYLOAD,LARGE,STARLINK-1735,AFETR,2024-08-21
SGP4,6926.642,129.3837,2.1191E-4,U,2024-02-01T05:05:13.894Z,system.ob-ingest,REAL,1.89E-4,a89f14c2-9cb4-478f-a3f2-c365eb6a2237,46576,53.0546,1 46576U 20070AW  24031.96111606 +.00002877 +00000+0 +21191-3 0 99996,2 46576  53.0546   8.0782 0001890 129.3837 230.7319 15.06405009184007,230.7319,15.06405009,0.0,2.877E-5,OPS1,6924.024,95.592,8.0782,18400,46576,6925.333,18th SPCS,2024-01-31T23:04:00.427584Z,2024-02-01T05:26:09.593088Z,US,2020-10-06,70,AW,46576,2020-070AW,STARLINK-1677,46576,PAYLOAD,LARGE,STARLINK-1677,AFETR,2024-08-21
SGP4,6537.92,262.5351,0.0025862,U,2022-04-22T06:05:16.059Z,system.ob-ingest,REAL,2.246E-4,30933e19-40f3-4905-9dc9-cde213da86d3,47553,53.032,1 47553U 21009F   22112.17149930 +.50719791 +12436-4 +25862-2 0 99991,2 47553  53.0320 202.9850 0002246 262.5351 104.4277 16.42818705068611,104.4277,16.42818705,1.2436E-5,0.50719791,OPS1,6534.984,87.654,202.985,6861,47553,6536.452,18th SPCS,2022-04-22T04:06:57.539520Z,"",US,2021-02-04,9,F,47553,2021-009F,STARLINK-1951,47553,PAYLOAD,LARGE,STARLINK-1951,AFETR,2024-08-21
SGP4,6926.396,99.3414,2.8162E-5,U,2024-01-31T15:05:13.973Z,system.ob-ingest,REAL,1.493E-4,05039f34-cd17-4a75-818f-097886fd8cd2,47742,53.0552,1 47742U 21017W   24031.41560153 +.00000138 +00000+0 +28162-4 0 99993,2 47742  53.0552  50.5302 0001493  99.3414 260.7744 15.06395714161445,260.7744,15.06395714,0.0,1.38E-6,OPS1,6924.328,95.592,50.5302,16144,47742,6925.362,18th SPCS,2024-01-31T09:58:27.972192Z,2024-02-01T09:51:32.824512Z,US,2021-03-04,17,W,47742,2021-017W,STARLINK-2156,47742,PAYLOAD,LARGE,STARLINK-2156,AFETR,2024-08-21
SGP4,6926.278,114.2331,-7.7118E-5,U,2024-01-31T15:05:13.601Z,system.ob-ingest,REAL,1.314E-4,0373f6d5-9cd2-4d53-a940-0f7d73d921d2,47774,53.053,1 47774U 21017BE  24031.51696625 -.00001430 +00000+0 -77118-4 0 99996,2 47774  53.0530  70.0835 0001314 114.2331 245.8795 15.06393539161174,245.8795,15.06393539,0.0,-1.43E-5,OPS1,6924.458,95.593,70.0835,16117,47774,6925.368,18th SPCS,2024-01-31T12:24:25.884000Z,2024-02-01T09:06:26.923392Z,US,2021-03-04,17,BE,47774,2021-017BE,STARLINK-2197,47774,PAYLOAD,LARGE,STARLINK-2197,AFETR,2024-08-21
SGP4,6926.609,135.723,-3.5436E-5,U,2024-01-31T15:05:13.651Z,system.ob-ingest,REAL,1.851E-4,ffb4a0a7-a64f-414c-a08e-a08ddfed703a,47804,53.0544,1 47804U 21018T   24031.35016649 -.00000810 +00000+0 -35436-4 0 99993,2 47804  53.0544  80.8260 0001851 135.7230 224.3907 15.06407020160724,224.3907,15.0640702,0.0,-8.1E-6,OPS1,6924.045,95.592,80.826,16072,47804,6925.327,18th SPCS,2024-01-31T08:24:14.384736Z,2024-02-01T09:52:52.430016Z,US,2021-03-11,18,T,47804,2021-018T,STARLINK-2385,47804,PAYLOAD,LARGE,STARLINK-2385,AFETR,2024-08-21
SGP4,6926.319,96.0478,-4.1192E-5,U,2024-01-31T15:05:13.691Z,system.ob-ingest,REAL,1.381E-4,c3e49e5d-aa29-4bb1-ab73-315ff55bb10d,47821,53.0537,1 47821U 21018AL  24031.47733358 -.00000895 +00000+0 -41192-4 0 99997,2 47821  53.0537 100.2643 0001381  96.0478 264.0669 15.06395483160475,264.0669,15.06395483,0.0,-8.95E-6,OPS1,6924.406,95.592,100.2643,16047,47821,6925.362,18th SPCS,2024-01-31T11:27:21.621312Z,2024-02-01T09:44:54.864384Z,US,2021-03-11,18,AL,47821,2021-018AL,STARLINK-2406,47821,PAYLOAD,LARGE,STARLINK-2406,AFETR,2024-08-21
SGP4,6926.873,60.2349,1.6174E-4,U,2024-01-31T15:05:13.439Z,system.ob-ingest,REAL,2.167E-4,cb606aee-aa18-4d70-813b-248404d8640b,47900,53.0545,1 47900U 21021AS  24031.49299405 +.00002128 +00000+0 +16174-3 0 99991,2 47900  53.0545 120.1919 0002167  60.2349 299.8856 15.06392307159937,299.8856,15.06392307,0.0,2.128E-5,OPS1,6923.871,95.593,120.1919,15993,47900,6925.372,18th SPCS,2024-01-31T11:49:54.685920Z,2024-02-01T11:42:59.144256Z,US,2021-03-14,21,AS,47900,2021-021AS,STARLINK-2360,47900,PAYLOAD,LARGE,STARLINK-2360,AFETR,2024-08-21
SGP4,6926.262,76.294,1.2401E-4,U,2024-01-31T23:05:15.576Z,system.ob-ingest,REAL,1.275E-4,7a77a7ab-850a-4eb7-96fa-8afe96c08655,48093,53.056,1 48093U 21027B   24031.25345370 +.00001566 +00000+0 +12401-3 0 99992,2 48093  53.0560  11.4648 0001275  76.2940 283.8191 15.06390201156733,283.8191,15.06390201,0.0,1.566E-5,OPS1,6924.496,95.593,11.4648,15673,48093,6925.379,18th SPCS,2024-01-31T06:04:58.399680Z,2024-02-01T02:46:58.578528Z,US,2021-04-07,27,B,48093,2021-027B,STARLINK-2404,48093,PAYLOAD,LARGE,STARLINK-2404,AFETR,2024-08-21
SGP4,6926.213,101.7011,1.8201E-4,U,2024-02-01T05:05:14.276Z,system.ob-ingest,REAL,1.23E-4,5052469d-4926-42cd-862e-1237c78b26d0,48097,53.056,1 48097U 21027F   24031.89569431 +.00002430 +00000+0 +18201-3 0 99997,2 48097  53.0560 358.3789 0001230 101.7011 258.4116 15.06396017156972,258.4116,15.06396017,0.0,2.43E-5,OPS1,6924.509,95.592,358.3789,15697,48097,6925.361,18th SPCS,2024-01-31T21:29:47.988384Z,2024-02-01T03:51:57.298176Z,US,2021-04-07,27,F,48097,2021-027F,STARLINK-2418,48097,PAYLOAD,LARGE,STARLINK-2418,AFETR,2024-08-21
SGP4,6926.303,82.4017,-3.6155E-6,U,2024-01-31T23:05:15.365Z,system.ob-ingest,REAL,1.34E-4,ac1a7b52-a323-4d1e-a608-0a8a238cd0fd,48144,53.0562,1 48144U 21027BE  24031.21380199 -.00000335 +00000+0 -36155-5 0 99992,2 48144  53.0562   1.4451 0001340  82.4017 277.7124 15.06391495156868,277.7124,15.06391495,0.0,-3.35E-6,OPS1,6924.447,95.593,1.4451,15686,48144,6925.375,18th SPCS,2024-01-31T05:07:52.491936Z,2024-02-01T03:25:25.172544Z,US,2021-04-07,27,BE,48144,2021-027BE,STARLINK-2487,48144,PAYLOAD,LARGE,STARLINK-2487,AFETR,2024-08-21
SGP4,6926.446,101.5637,2.5025E-4,U,2024-02-01T05:05:13.941Z,system.ob-ingest,REAL,1.539E-4,49e0636c-5f56-4473-9c6f-8d8d15dec24b,48151,53.0568,1 48151U 21027BM  24031.93255572 +.00003447 +00000+0 +25025-3 0 99992,2 48151  53.0568 358.2128 0001539 101.5637 258.5525 15.06389587156981,258.5525,15.06389587,0.0,3.447E-5,OPS1,6924.315,95.593,358.2128,15698,48151,6925.38,18th SPCS,2024-01-31T22:22:52.814208Z,2024-02-01T03:09:30.016224Z,US,2021-04-07,27,BM,48151,2021-027BM,STARLINK-2503,48151,PAYLOAD,LARGE,STARLINK-2503,AFETR,2024-08-21
SGP4,6926.288,103.0081,2.7826E-4,U,2024-02-01T05:05:13.959Z,system.ob-ingest,REAL,1.393E-4,24b80d8a-dd2c-446c-baae-d8c415ba7e6f,48290,53.0546,1 48290U 21036Q   24031.73996987 +.00003866 +00000+0 +27826-3 0 99992,2 48290  53.0546 289.0773 0001393 103.0081 257.1063 15.06408253152560,257.1063,15.06408253,0.0,3.866E-5,OPS1,6924.359,95.592,289.0773,15256,48290,6925.323,18th SPCS,2024-01-31T17:45:33.396768Z,2024-02-02T00:00:48.266496Z,US,2021-04-29,36,Q,48290,2021-036Q,STARLINK-2540,48290,PAYLOAD,LARGE,STARLINK-2540,AFETR,2024-08-21
SGP4,6926.201,90.7268,1.5962E-4,U,2024-01-31T07:05:13.061Z,system.ob-ingest,REAL,1.221E-4,e6a12895-7426-4df2-b144-d7a5f29cbe50,48292,53.0542,1 48292U 21036S   24031.01754979 +.00002097 +00000+0 +15962-3 0 99991,2 48292  53.0542 292.4850 0001221  90.7268 269.3860 15.06397647153038,269.386,15.06397647,0.0,2.097E-5,OPS1,6924.51,95.592,292.485,15303,48292,6925.356,18th SPCS,2024-01-31T00:25:16.301856Z,2024-02-01T00:18:21.779712Z,US,2021-04-29,36,S,48292,2021-036S,STARLINK-2542,48292,PAYLOAD,LARGE,STARLINK-2542,AFETR,2024-08-21
